NORAD_CAT_ID,OBJECT_NAME,OBJECT_TYPE,EPOCH,MEAN_MOTION,ECCENTRICITY,INCLINATION,RA_OF_ASC_NODE,ARG_OF_PERICENTER,MEAN_ANOMALY,BSTAR,MEAN_MOTION_DOT,MEAN_MOTION_DDOT,TLE_LINE0,TLE_LINE1,TLE_LINE2,SEMIMAJOR_AXIS,PERIOD,APOGEE,PERIGEE,DECAYED
53594.0,STARLINK-4681,PAYLOAD,2022-10-14 06:00:00,15.09091596,0.0001247,53.2173,61.6153,86.944,107.4852,-0.023389,-0.00356932,0.0,0 STARLINK-4681,1 53594U 22104G   22287.25001157 -.00356932  00000-0 -23389-1 0  9993,2 53594  53.2173  61.6153 0001247  86.9440 107.4852 15.09091596  7353,6917.111,95.422,539.839,538.114,0.0
53594.0,STARLINK-4681,PAYLOAD,2022-10-14 14:00:01,15.08835434,0.0001372,53.2175,60.1201,77.1507,129.0148,0.00013743,1.9e-05,0.0,0 STARLINK-4681,1 53594U 22104G   22287.58334491  .00001900  00000-0  13743-3 0  9994,2 53594  53.2175  60.1201 0001372  77.1507 129.0148 15.08835434  7408,6917.894,95.438,540.7080000000002,538.81,0.0
53594.0,STARLINK-4681,PAYLOAD,2022-10-14 22:00:00,15.08837685,0.000134,53.2172,58.6238,75.0639,142.6927,-9.5174e-05,-1.802e-05,0.0,0 STARLINK-4681,1 53594U 22104G   22287.91667824 -.00001802  00000-0 -95174-4 0  9992,2 53594  53.2172  58.6238 0001340  75.0639 142.6927 15.08837685  1304,6917.887,95.438,540.679,538.825,0.0
53594.0,STARLINK-4681,PAYLOAD,2022-10-15 14:00:01,15.08883359,0.0001602,53.2171,55.6335,78.3597,162.4506,-0.0015607,-0.0002506999999999,0.0,0 STARLINK-4681,1 53594U 22104G   22288.58334491 -.00025070  00000-0 -15607-2 0  9991,2 53594  53.2171  55.6335 0001602  78.3597 162.4506 15.08883359  7553,6917.748000000001,95.435,540.721,538.505,0.0
53594.0,STARLINK-4681,PAYLOAD,2022-10-15 22:00:01,15.08795333,0.000166,53.217,54.1364,73.1954,179.3663,0.008134,0.00131428,0.0,0 STARLINK-4681,1 53594U 22104G   22288.91668981  .00131428  00000-0  81340-2 0  9992,2 53594  53.2170  54.1364 0001660  73.1954 179.3663 15.08795333  1304,6918.017,95.44,541.03,538.734,0.0
53594.0,STARLINK-4681,PAYLOAD,2022-10-16 14:00:01,15.08871771,0.0001351,53.2168,51.1444,72.9085,202.7696,-0.0039083,-0.00062007,0.0,0 STARLINK-4681,1 53594U 22104G   22289.58334491 -.00062007  00000-0 -39083-2 0  9997,2 53594  53.2168  51.1444 0001351  72.9085 202.7696 15.08871771  1304,6917.783,95.436,540.5830000000002,538.714,0.0
53594.0,STARLINK-4681,PAYLOAD,2022-10-16 22:00:00,15.08853456,0.0001291999999999,53.2168,49.648,66.9529,220.3266,-0.0030473,-0.00048477,0.0,0 STARLINK-4681,1 53594U 22104G   22289.91667824 -.00048477  00000-0 -30473-2 0  9992,2 53594  53.2168  49.6480 0001292  66.9529 220.3266 15.08853456  1305,6917.839,95.437,540.5980000000002,538.81,0.0
53594.0,STARLINK-4681,PAYLOAD,2022-10-17 06:00:00,15.08795431,0.000133,53.2168,48.1494,78.0007,220.8784,0.0035957,0.00057333,0.0,0 STARLINK-4681,1 53594U 22104G   22290.25001157  .00057333  00000-0  35957-2 0  9993,2 53594  53.2168  48.1494 0001330  78.0007 220.8784 15.08795431  7801,6918.017,95.44,540.802,538.962,0.0
53594.0,STARLINK-4681,PAYLOAD,2022-10-17 14:00:01,15.08848699,0.0001445,53.2172,46.6552,68.0869,242.3901,0.00032746,4.929e-05,0.0,0 STARLINK-4681,1 53594U 22104G   22290.58334491  .00004929  00000-0  32746-3 0  9996,2 53594  53.2172  46.6552 0001445  68.0869 242.3901 15.08848699  1300,6917.854,95.437,540.7180000000002,538.719,0.0
53594.0,STARLINK-4681,PAYLOAD,2022-10-17 22:00:00,15.08875007,0.0001354,53.217,45.1587,64.8943,257.1637,-0.0045746,-0.0007243,0.0,0 STARLINK-4681,1 53594U 22104G   22290.91667824 -.00072430  00000-0 -45746-2 0  9999,2 53594  53.2170  45.1587 0001354  64.8943 257.1637 15.08875007  7912,6917.773,95.435,540.575,538.702,0.0
53594.0,STARLINK-4681,PAYLOAD,2022-10-18 14:00:01,15.08823474,0.0001498,53.2174,42.1662,66.1964,279.0372,-5.2484e-05,-1.123e-05,0.0,0 STARLINK-4681,1 53594U 22104G   22291.58334491 -.00001123  00000-0 -52484-4 0  9994,2 53594  53.2174  42.1662 0001498  66.1964 279.0372 15.08823474  8016,6917.931,95.439,540.832,538.76,0.0
53594.0,STARLINK-4681,PAYLOAD,2022-10-18 22:00:00,15.08845213,0.0001448,53.2175,40.6695,63.6565,293.1438,-0.0010869,-0.00017547,0.0,0 STARLINK-4681,1 53594U 22104G   22291.91667824 -.00017547  00000-0 -10869-2 0  9996,2 53594  53.2175  40.6695 0001448  63.6565 293.1438 15.08845213  1300,6917.864000000001,95.437,540.731,538.7280000000002,0.0
53594.0,STARLINK-4681,PAYLOAD,2022-10-19 06:00:00,15.08837598,0.0001363,53.2179,39.1718,72.2739,296.1284,0.0016585999999999,0.00026205,0.0,0 STARLINK-4681,1 53594U 22104G   22292.25001157  .00026205  00000-0  16586-2 0  9996,2 53594  53.2179  39.1718 0001363  72.2739 296.1284 15.08837598  8113,6917.888000000001,95.438,540.696,538.81,0.0
53594.0,STARLINK-4681,PAYLOAD,2022-10-19 14:00:01,15.08839175,0.0001439,53.2179,37.6771,62.8136,317.198,-0.00040907,-6.792e-05,0.0,0 STARLINK-4681,1 53594U 22104G   22292.58334491 -.00006792  00000-0 -40907-3 0  9998,2 53594  53.2179  37.6771 0001439  62.8136 317.1980 15.08839175  1309,6917.8830000000025,95.438,540.743,538.752,0.0
53594.0,STARLINK-4681,PAYLOAD,2022-10-19 22:00:00,15.08856294,0.0001431999999999,53.2174,36.1794,60.5007,331.1028,0.00034409,5.195e-05,0.0,0 STARLINK-4681,1 53594U 22104G   22292.91667824  .00005195  00000-0  34409-3 0  9998,2 53594  53.2174  36.1794 0001432  60.5007 331.1028 15.08856294  1308,6917.831,95.437,540.686,538.705,0.0
53594.0,STARLINK-4681,PAYLOAD,2022-10-20 14:00:01,15.08848406,0.0001341999999999,53.2182,33.1881,58.8153,355.9885,-0.0011978,-0.00019304,0.0,0 STARLINK-4681,1 53594U 22104G   22293.58334491 -.00019304  00000-0 -11978-2 0  9997,2 53594  53.2182  33.1881 0001342  58.8153 355.9885 15.08848406  8312,6917.855,95.437,540.648,538.7909999999998,0.0
53594.0,STARLINK-4681,PAYLOAD,2022-10-20 22:00:00,15.08846678,0.0001322,53.2179,31.6904,59.0771,7.3243,-0.0021813,-0.00034842,0.0,0 STARLINK-4681,1 53594U 22104G   22293.91667824 -.00034842  00000-0 -21813-2 0  9996,2 53594  53.2179  31.6904 0001322  59.0771   7.3243 15.08846678  1301,6917.86,95.437,540.64,538.81,0.0
53594.0,STARLINK-4681,PAYLOAD,2022-10-21 14:00:01,15.08852705,0.0001441999999999,53.2182,28.6991,59.5182,30.0786,0.00031696,4.762e-05,0.0,0 STARLINK-4681,1 53594U 22104G   22294.58334491  .00004762  00000-0  31696-3 0  9998,2 53594  53.2182  28.6991 0001442  59.5182  30.0786 15.08852705  8468,6917.842,95.437,540.7040000000002,538.7090000000002,0.0
53594.0,STARLINK-4681,PAYLOAD,2022-10-21 22:00:00,15.08870757,0.0001368,53.218,27.2021,62.3184,38.8746,-0.0039691,-0.00062957,0.0,0 STARLINK-4681,1 53594U 22104G   22294.91667824 -.00062957  00000-0 -39691-2 0  9998,2 53594  53.2180  27.2021 0001368  62.3184  38.8746 15.08870757  1301,6917.786,95.436,540.5980000000002,538.705,0.0
53594.0,STARLINK-4681,PAYLOAD,2022-10-22 06:00:00,15.08824278,0.0001309,53.2182,25.7049,70.0768,42.722,0.00070377,0.00010925,0.0,0 STARLINK-4681,1 53594U 22104G   22295.25001157  .00010925  00000-0  70377-3 0  9990,2 53594  53.2182  25.7049 0001309  70.0768  42.7220 15.08824278  8568,6917.928000000001,95.439,540.6990000000002,538.888,0.0
53594.0,STARLINK-4681,PAYLOAD,2022-10-22 14:00:01,15.08819345,0.0001389,53.2181,24.2105,60.4023,63.9751,0.00092936,0.00014525,0.0,0 STARLINK-4681,1 53594U 22104G   22295.58334491  .00014525  00000-0  92936-3 0  9991,2 53594  53.2181  24.2105 0001389  60.4023  63.9751 15.08819345  1307,6917.944,95.439,540.769,538.8480000000002,0.0
53594.0,STARLINK-4681,PAYLOAD,2022-10-22 22:00:00,15.08859206,0.0001323,53.2178,22.7133,61.3277,74.6326,-0.00057113,-9.371e-05,0.0,0 STARLINK-4681,1 53594U 22104G   22295.91667824 -.00009371  00000-0 -57113-3 0  9990,2 53594  53.2178  22.7133 0001323  61.3277  74.6326 15.08859206  1303,6917.821999999999,95.436,540.602,538.771,0.0
53594.0,STARLINK-4681,PAYLOAD,2022-10-23 14:00:01,15.08880947,0.0001498,53.2179,19.7218,60.2421,98.9649,-0.0019812,-0.00031716,0.0,0 STARLINK-4681,1 53594U 22104G   22296.58334491 -.00031716  00000-0 -19812-2 0  9996,2 53594  53.2179  19.7218 0001498  60.2421  98.9649 15.08880947  1309,6917.755,95.435,540.6569999999998,538.5840000000002,0.0
53594.0,STARLINK-4681,PAYLOAD,2022-10-23 22:00:00,15.08848154,0.0001142,53.2177,18.2234,55.2005,115.5938,-0.0015187,-0.00024382,0.0,0 STARLINK-4681,1 53594U 22104G   22296.91667824 -.00024382  00000-0 -15187-2 0  9994,2 53594  53.2177  18.2234 0001142  55.2005 115.5938 15.08848154  1308,6917.855,95.437,540.51,538.93,0.0
53594.0,STARLINK-4681,PAYLOAD,2022-10-24 14:00:01,15.08816779,0.0001385,53.2177,15.2326,53.0157,140.9846,0.0016096,0.00025405,0.0,0 STARLINK-4681,1 53594U 22104G   22297.58334491  .00025405  00000-0  16096-2 0  9994,2 53594  53.2177  15.2326 0001385  53.0157 140.9846 15.08816779  8912,6917.951,95.439,540.775,538.8580000000002,0.0
53594.0,STARLINK-4681,PAYLOAD,2022-10-24 22:00:00,15.08881198,0.0001348,53.2175,13.7334,58.0093,147.5644,-0.010541,-0.00164427,0.0,0 STARLINK-4681,1 53594U 22104G   22297.91667824 -.00164427  00000-0 -10541-1 0  9998,2 53594  53.2175  13.7334 0001348  58.0093 147.5644 15.08881198  1307,6917.754,95.435,540.552,538.687,0.0
53594.0,STARLINK-4681,PAYLOAD,2022-10-25 14:00:01,15.08817963,0.0001551999999999,53.218,10.7443,53.4507,175.2507,0.0024618,0.00039085,0.0,0 STARLINK-4681,1 53594U 22104G   22298.58334491  .00039085  00000-0  24618-2 0  9993,2 53594  53.2180  10.7443 0001552  53.4507 175.2507 15.08817963  1302,6917.948,95.439,540.886,538.739,0.0
53594.0,STARLINK-4681,PAYLOAD,2022-10-25 22:00:01,15.08855951,0.000145,53.2181,9.2465,56.4603,183.8881,-0.0010654,-0.00017211,0.0,0 STARLINK-4681,1 53594U 22104G   22298.91668981 -.00017211  00000-0 -10654-2 0  9998,2 53594  53.2181   9.2465 0001450  56.4603 183.8881 15.08855951  1306,6917.831999999999,95.437,540.7,538.694,0.0
53594.0,STARLINK-4681,PAYLOAD,2022-10-26 14:00:01,15.08816068,0.0001719,53.2182,6.2553,54.7578,208.7407,0.0027788,0.00044185,0.0,0 STARLINK-4681,1 53594U 22104G   22299.58334491  .00044185  00000-0  27788-2 0  9992,2 53594  53.2182   6.2553 0001719  54.7578 208.7407 15.08816068  1309,6917.954000000002,95.439,541.008,538.629,0.0
